{"fetched_at":"2026-07-11T09:23:59.140Z","source":"https://celestrak.org/NORAD/elements/gp.php?GROUP=planet&FORMAT=JSON","constellation":"superdove","records":[{"OBJECT_NAME":"FLOCK 4Q-16","OBJECT_ID":"2023-174R","EPOCH":"2026-07-11T01:23:48.153408","CLASSIFICATION_TYPE":"U","MEAN_MOTION":15.50247008,"ECCENTRICITY":0.0007025,"INCLINATION":97.3829,"RA_OF_ASC_NODE":280.7363,"ARG_OF_PERICENTER":89.0355,"MEAN_ANOMALY":271.1702,"EPHEMERIS_TYPE":0,"NORAD_CAT_ID":58271,"ELEMENT_SET_NO":999,"REV_AT_EPOCH":14927,"BSTAR":0.00022972,"MEAN_MOTION_DOT":0.00012906,"MEAN_MOTION_DDOT":0},{"OBJECT_NAME":"FLOCK 4Q-11","OBJECT_ID":"2023-174T","EPOCH":"2026-07-10T04:38:54.136896","CLASSIFICATION_TYPE":"U","MEAN_MOTION":15.50712242,"ECCENTRICITY":0.00067081,"INCLINATION":97.3859,"RA_OF_ASC_NODE":280.4798,"ARG_OF_PERICENTER":86.5059,"MEAN_ANOMALY":273.696,"EPHEMERIS_TYPE":0,"NORAD_CAT_ID":58273,"ELEMENT_SET_NO":999,"REV_AT_EPOCH":14915,"BSTAR":0.00034950119,"MEAN_MOTION_DOT":0.00020028,"MEAN_MOTION_DDOT":0},{"OBJECT_NAME":"FLOCK 4Q-28","OBJECT_ID":"2023-174AA","EPOCH":"2026-07-11T05:30:42.865056","CLASSIFICATION_TYPE":"U","MEAN_MOTION":15.56608468,"ECCENTRICITY":0.0005277,"INCLINATION":97.389,"RA_OF_ASC_NODE":284.241,"ARG_OF_PERICENTER":75.2079,"MEAN_ANOMALY":284.976,"EPHEMERIS_TYPE":0,"NORAD_CAT_ID":58280,"ELEMENT_SET_NO":999,"REV_AT_EPOCH":14948,"BSTAR":0.00031957,"MEAN_MOTION_DOT":0.00022668,"MEAN_MOTION_DDOT":0},{"OBJECT_NAME":"FLOCK 4Q-27","OBJECT_ID":"2023-174AC","EPOCH":"2026-07-10T15:40:58.696032","CLASSIFICATION_TYPE":"U","MEAN_MOTION":15.56765778,"ECCENTRICITY":0.0004392,"INCLINATION":97.3812,"RA_OF_ASC_NODE":283.0548,"ARG_OF_PERICENTER":81.0402,"MEAN_ANOMALY":279.135,"EPHEMERIS_TYPE":0,"NORAD_CAT_ID":58282,"ELEMENT_SET_NO":999,"REV_AT_EPOCH":14940,"BSTAR":0.00030485,"MEAN_MOTION_DOT":0.00021739,"MEAN_MOTION_DDOT":0},{"OBJECT_NAME":"FLOCK 4Q-7","OBJECT_ID":"2023-174BQ","EPOCH":"2026-07-10T16:08:47.063616","CLASSIFICATION_TYPE":"U","MEAN_MOTION":15.57164081,"ECCENTRICITY":0.000501,"INCLINATION":97.3909,"RA_OF_ASC_NODE":283.9852,"ARG_OF_PERICENTER":60.4317,"MEAN_ANOMALY":299.7437,"EPHEMERIS_TYPE":0,"NORAD_CAT_ID":58318,"ELEMENT_SET_NO":999,"REV_AT_EPOCH":14940,"BSTAR":0.00042156,"MEAN_MOTION_DOT":0.00030587,"MEAN_MOTION_DDOT":0},{"OBJECT_NAME":"FLOCK 4Q-2","OBJECT_ID":"2023-174BS","EPOCH":"2026-07-11T05:03:38.780928","CLASSIFICATION_TYPE":"U","MEAN_MOTION":15.50710098,"ECCENTRICITY":0.0005208,"INCLINATION":97.3842,"RA_OF_ASC_NODE":281.2377,"ARG_OF_PERICENTER":63.8109,"MEAN_ANOMALY":296.3678,"EPHEMERIS_TYPE":0,"NORAD_CAT_ID":58320,"ELEMENT_SET_NO":999,"REV_AT_EPOCH":14932,"BSTAR":0.00029312,"MEAN_MOTION_DOT":0.00016767,"MEAN_MOTION_DDOT":0},{"OBJECT_NAME":"FLOCK 4Q-9","OBJECT_ID":"2023-174BU","EPOCH":"2026-07-09T11:41:24.546624","CLASSIFICATION_TYPE":"U","MEAN_MOTION":15.51132843,"ECCENTRICITY":0.00061787,"INCLINATION":97.3856,"RA_OF_ASC_NODE":279.5754,"ARG_OF_PERICENTER":70.1317,"MEAN_ANOMALY":290.06,"EPHEMERIS_TYPE":0,"NORAD_CAT_ID":58322,"ELEMENT_SET_NO":999,"REV_AT_EPOCH":14904,"BSTAR":0.00038601183,"MEAN_MOTION_DOT":0.00022467,"MEAN_MOTION_DDOT":0},{"OBJECT_NAME":"FLOCK 4Q-4","OBJECT_ID":"2023-174BZ","EPOCH":"2026-07-10T04:56:57.313824","CLASSIFICATION_TYPE":"U","MEAN_MOTION":15.49709782,"ECCENTRICITY":0.00062258,"INCLINATION":97.3823,"RA_OF_ASC_NODE":279.4426,"ARG_OF_PERICENTER":89.4278,"MEAN_ANOMALY":270.7687,"EPHEMERIS_TYPE":0,"NORAD_CAT_ID":58327,"ELEMENT_SET_NO":999,"REV_AT_EPOCH":14912,"BSTAR":0.00034462192,"MEAN_MOTION_DOT":0.00019055,"MEAN_MOTION_DDOT":0},{"OBJECT_NAME":"FLOCK 4Q-13","OBJECT_ID":"2023-174CA","EPOCH":"2026-07-10T04:49:21.289440","CLASSIFICATION_TYPE":"U","MEAN_MOTION":15.5272179,"ECCENTRICITY":0.00062622,"INCLINATION":97.4001,"RA_OF_ASC_NODE":282.7058,"ARG_OF_PERICENTER":70.5001,"MEAN_ANOMALY":289.6928,"EPHEMERIS_TYPE":0,"NORAD_CAT_ID":58328,"ELEMENT_SET_NO":999,"REV_AT_EPOCH":14924,"BSTAR":0.000297062,"MEAN_MOTION_DOT":0.00018269,"MEAN_MOTION_DDOT":0},{"OBJECT_NAME":"FLOCK 4BE-18","OBJECT_ID":"2024-149N","EPOCH":"2026-07-10T04:18:13.375872","CLASSIFICATION_TYPE":"U","MEAN_MOTION":15.42627981,"ECCENTRICITY":0.00048093,"INCLINATION":97.3723,"RA_OF_ASC_NODE":275.1601,"ARG_OF_PERICENTER":158.3301,"MEAN_ANOMALY":201.8151,"EPHEMERIS_TYPE":0,"NORAD_CAT_ID":60480,"ELEMENT_SET_NO":999,"REV_AT_EPOCH":10585,"BSTAR":0.00024256152,"MEAN_MOTION_DOT":0.00010476,"MEAN_MOTION_DDOT":0},{"OBJECT_NAME":"FLOCK 4BE-7","OBJECT_ID":"2024-149P","EPOCH":"2026-07-11T04:22:17.220000","CLASSIFICATION_TYPE":"U","MEAN_MOTION":15.41340214,"ECCENTRICITY":0.0004099,"INCLINATION":97.3757,"RA_OF_ASC_NODE":275.4708,"ARG_OF_PERICENTER":159.0546,"MEAN_ANOMALY":201.087,"EPHEMERIS_TYPE":0,"NORAD_CAT_ID":60481,"ELEMENT_SET_NO":999,"REV_AT_EPOCH":10594,"BSTAR":0.00035433,"MEAN_MOTION_DOT":0.00014704,"MEAN_MOTION_DDOT":0},{"OBJECT_NAME":"FLOCK 4BE-36","OBJECT_ID":"2024-149U","EPOCH":"2026-07-08T18:38:48.136128","CLASSIFICATION_TYPE":"U","MEAN_MOTION":15.43394438,"ECCENTRICITY":0.00042911,"INCLINATION":97.3738,"RA_OF_ASC_NODE":274.473,"ARG_OF_PERICENTER":170.3083,"MEAN_ANOMALY":189.8249,"EPHEMERIS_TYPE":0,"NORAD_CAT_ID":60486,"ELEMENT_SET_NO":999,"REV_AT_EPOCH":10568,"BSTAR":0.00027967151,"MEAN_MOTION_DOT":0.00012409,"MEAN_MOTION_DDOT":0},{"OBJECT_NAME":"FLOCK 4BE-25","OBJECT_ID":"2024-149V","EPOCH":"2026-07-09T04:37:33.544704","CLASSIFICATION_TYPE":"U","MEAN_MOTION":15.39431125,"ECCENTRICITY":0.00032946,"INCLINATION":97.3792,"RA_OF_ASC_NODE":273.5,"ARG_OF_PERICENTER":156.2094,"MEAN_ANOMALY":203.9304,"EPHEMERIS_TYPE":0,"NORAD_CAT_ID":60487,"ELEMENT_SET_NO":999,"REV_AT_EPOCH":10562,"BSTAR":0.000277744,"MEAN_MOTION_DOT":0.00010797,"MEAN_MOTION_DDOT":0},{"OBJECT_NAME":"FLOCK 4BE-31","OBJECT_ID":"2024-149W","EPOCH":"2026-07-09T01:06:53.876160","CLASSIFICATION_TYPE":"U","MEAN_MOTION":15.44977948,"ECCENTRICITY":0.00033799,"INCLINATION":97.3793,"RA_OF_ASC_NODE":275.6689,"ARG_OF_PERICENTER":166.3128,"MEAN_ANOMALY":193.8213,"EPHEMERIS_TYPE":0,"NORAD_CAT_ID":60488,"ELEMENT_SET_NO":999,"REV_AT_EPOCH":10575,"BSTAR":0.00032502679,"MEAN_MOTION_DOT":0.00015235,"MEAN_MOTION_DDOT":0},{"OBJECT_NAME":"FLOCK 4BE-20","OBJECT_ID":"2024-149X","EPOCH":"2026-07-10T12:47:03.560640","CLASSIFICATION_TYPE":"U","MEAN_MOTION":15.3872618,"ECCENTRICITY":0.0004628,"INCLINATION":97.3694,"RA_OF_ASC_NODE":273.67,"ARG_OF_PERICENTER":165.1738,"MEAN_ANOMALY":194.9644,"EPHEMERIS_TYPE":0,"NORAD_CAT_ID":60489,"ELEMENT_SET_NO":999,"REV_AT_EPOCH":10580,"BSTAR":0.00025405,"MEAN_MOTION_DOT":0.00009644,"MEAN_MOTION_DDOT":0},{"OBJECT_NAME":"FLOCK 4BE-23","OBJECT_ID":"2024-149Y","EPOCH":"2026-07-09T00:47:36.042720","CLASSIFICATION_TYPE":"U","MEAN_MOTION":15.38255639,"ECCENTRICITY":0.00040844,"INCLINATION":97.3776,"RA_OF_ASC_NODE":272.5504,"ARG_OF_PERICENTER":173.1683,"MEAN_ANOMALY":186.9618,"EPHEMERIS_TYPE":0,"NORAD_CAT_ID":60490,"ELEMENT_SET_NO":999,"REV_AT_EPOCH":10555,"BSTAR":0.00027962152,"MEAN_MOTION_DOT":0.00010461,"MEAN_MOTION_DDOT":0}]}
