FLOCK 4Q-16             
1 58271U 23174R   26192.05819622  .00012906  00000+0  22972-3 0  9995
2 58271  97.3829 280.7363 0007025  89.0355 271.1702 15.50247008149271
FLOCK 4Q-11             
1 58273U 23174T   26191.19368214  .00020028  00000+0  34950-3 0  9990
2 58273  97.3859 280.4798 0006708  86.5059 273.6960 15.50712242149152
FLOCK 4Q-28             
1 58280U 23174AA  26192.22966279  .00022668  00000+0  31957-3 0  9994
2 58280  97.3890 284.2410 0005277  75.2079 284.9760 15.56608468149484
FLOCK 4Q-27             
1 58282U 23174AC  26191.65345713  .00021739  00000+0  30485-3 0  9999
2 58282  97.3812 283.0548 0004392  81.0402 279.1350 15.56765778149402
FLOCK 4Q-7              
1 58318U 23174BQ  26191.67276694  .00030587  00000+0  42156-3 0  9991
2 58318  97.3909 283.9852 0005010  60.4317 299.7437 15.57164081149405
FLOCK 4Q-2              
1 58320U 23174BS  26192.21086552  .00016767  00000+0  29312-3 0  9990
2 58320  97.3842 281.2377 0005208  63.8109 296.3678 15.50710098149321
FLOCK 4Q-9              
1 58322U 23174BU  26190.48708966  .00022467  00000+0  38601-3 0  9994
2 58322  97.3856 279.5754 0006178  70.1317 290.0600 15.51132843149048
FLOCK 4Q-4              
1 58327U 23174BZ  26191.20621891  .00019055  00000+0  34462-3 0  9991
2 58327  97.3823 279.4426 0006225  89.4278 270.7687 15.49709782149122
FLOCK 4Q-13             
1 58328U 23174CA  26191.20094085  .00018269  00000+0  29706-3 0  9992
2 58328  97.4001 282.7058 0006262  70.5001 289.6928 15.52721790149243
FLOCK 4BE-18            
1 60480U 24149N   26191.17932148  .00010476  00000+0  24256-3 0  9991
2 60480  97.3723 275.1601 0004809 158.3301 201.8151 15.42627981105857
FLOCK 4BE-7             
1 60481U 24149P   26192.18214375  .00014704  00000+0  35433-3 0  9996
2 60481  97.3757 275.4708 0004099 159.0546 201.0870 15.41340214105946
FLOCK 4BE-36            
1 60486U 24149U   26189.77694602  .00012409  00000+0  27967-3 0  9990
2 60486  97.3738 274.4730 0004291 170.3083 189.8249 15.43394438105683
FLOCK 4BE-25            
1 60487U 24149V   26190.19274936  .00010797  00000+0  27774-3 0  9997
2 60487  97.3792 273.5000 0003294 156.2094 203.9304 15.39431125105625
FLOCK 4BE-31            
1 60488U 24149W   26190.04645690  .00015235  00000+0  32503-3 0  9999
2 60488  97.3793 275.6689 0003379 166.3128 193.8213 15.44977948105751
FLOCK 4BE-20            
1 60489U 24149X   26191.53268010  .00009644  00000+0  25405-3 0  9992
2 60489  97.3694 273.6700 0004628 165.1738 194.9644 15.38726180105805
FLOCK 4BE-23            
1 60490U 24149Y   26190.03305605  .00010461  00000+0  27962-3 0  9999
2 60490  97.3776 272.5504 0004084 173.1683 186.9618 15.38255639105552
